STARLINK-36921          
1 68019U 26040E   26087.79800829  .00244190  00000+0  15859-2 0  9991
2 68019  97.2857  37.1948 0001994  99.2159 260.9332 15.75272984  4362
